[
    {
        "Altitude(m)": 617719.7324535116,
        "Argument of Periapsis(deg)": 0.0,
        "Eccentricity": 0.0,
        "Inclination(deg)": 60.0,
        "Latitude(deg)": -41.10253590669074,
        "Longitude(deg)": 45.09470371236195,
        "Mean Anomaly(deg)": -130.9091,
        "RAAN(deg)": 295.00000000000006,
        "Satellite Name": "Test1 1312",
        "Satellite Number": 1312,
        "Semi-Major Axis(m)": 6980739.136638005,
        "Time(s)": 0
    },
    {
        "Altitude(m)": 617911.2680656414,
        "Argument of Periapsis(deg)": 0.00010418945913296404,
        "Eccentricity": 0.0,
        "Inclination(deg)": 60.0,
        "Latitude(deg)": -41.56572732070019,
        "Longitude(deg)": 45.59911038249426,
        "Mean Anomaly(deg)": -130.28899385453815,
        "RAAN(deg)": 294.99957995086027,
        "Satellite Name": "Test1 1312",
        "Satellite Number": 1312,
        "Semi-Major Axis(m)": 6980739.136638005,
        "Time(s)": 10
    },
    {
        "Altitude(m)": 618101.6784607004,
        "Argument of Periapsis(deg)": 0.0002083789182659281,
        "Eccentricity": 0.0,
        "Inclination(deg)": 60.0,
        "Latitude(deg)": -42.02624022990017,
        "Longitude(deg)": 46.11132440048808,
        "Mean Anomaly(deg)": -129.6688877090763,
        "RAAN(deg)": 294.99915990172053,
        "Satellite Name": "Test1 1312",
        "Satellite Number": 1312,
        "Semi-Major Axis(m)": 6980739.136638005,
        "Time(s)": 20
    },
    {
        "Altitude(m)": 618290.8906114846,
        "Argument of Periapsis(deg)": 0.00031256837739889213,
        "Eccentricity": 0.0,
        "Inclination(deg)": 60.0,
        "Latitude(deg)": -42.48399438773605,
        "Longitude(deg)": 46.63154044999288,
        "Mean Anomaly(deg)": -129.0487815636145,
        "RAAN(deg)": 294.9987398525808,
        "Satellite Name": "Test1 1312",
        "Satellite Number": 1312,
        "Semi-Major Axis(m)": 6980739.136638005,
        "Time(s)": 30
    },
    {
        "Altitude(m)": 618478.8318680003,
        "Argument of Periapsis(deg)": 0.0004167578365318562,
        "Eccentricity": 0.0,
        "Inclination(deg)": 60.0,
        "Latitude(deg)": -42.93890702261698,
        "Longitude(deg)": 47.15995700825639,
        "Mean Anomaly(deg)": -128.42867541815264,
        "RAAN(deg)": 294.99831980344106,
        "Satellite Name": "Test1 1312",
        "Satellite Number": 1312,
        "Semi-Major Axis(m)": 6980739.136638005,
        "Time(s)": 40
    },
    {
        "Altitude(m)": 618665.429989117,
        "Argument of Periapsis(deg)": 0.0005209472956648203,
        "Eccentricity": 0.0,
        "Inclination(deg)": 60.0,
        "Latitude(deg)": -43.39089275980533,
        "Longitude(deg)": 47.69677524820777,
        "Mean Anomaly(deg)": -127.80856927269079,
        "RAAN(deg)": 294.99789975430133,
        "Satellite Name": "Test1 1312",
        "Satellite Number": 1312,
        "Semi-Major Axis(m)": 6980739.136638005,
        "Time(s)": 50
    },
    {
        "Altitude(m)": 618850.6131740138,
        "Argument of Periapsis(deg)": 0.0006251367547977843,
        "Eccentricity": 0.0,
        "Inclination(deg)": 60.0,
        "Latitude(deg)": -43.83986354266376,
        "Longitude(deg)": 48.24219943366114,
        "Mean Anomaly(deg)": -127.18846312722893,
        "RAAN(deg)": 294.99747970516154,
        "Satellite Name": "Test1 1312",
        "Satellite Number": 1312,
        "Semi-Major Axis(m)": 6980739.136638005,
        "Time(s)": 60
    },
    {
        "Altitude(m)": 619034.3100934313,
        "Argument of Periapsis(deg)": 0.0007293262139307483,
        "Eccentricity": 0.0,
        "Inclination(deg)": 60.0,
        "Latitude(deg)": -44.285728553493,
        "Longitude(deg)": 48.796437292902304,
        "Mean Anomaly(deg)": -126.56835698176714,
        "RAAN(deg)": 294.99705965602186,
        "Satellite Name": "Test1 1312",
        "Satellite Number": 1312,
        "Semi-Major Axis(m)": 6980739.136638005,
        "Time(s)": 70
    },
    {
        "Altitude(m)": 619216.4499206516,
        "Argument of Periapsis(deg)": 0.0008335156730637124,
        "Eccentricity": 0.0,
        "Inclination(deg)": 60.0,
        "Latitude(deg)": -44.72839413422951,
        "Longitude(deg)": 49.35969885579968,
        "Mean Anomaly(deg)": -125.94825083630528,
        "RAAN(deg)": 294.9966396068821,
        "Satellite Name": "Test1 1312",
        "Satellite Number": 1312,
        "Semi-Major Axis(m)": 6980739.136638005,
        "Time(s)": 80
    },
    {
        "Altitude(m)": 619396.9623622982,
        "Argument of Periapsis(deg)": 0.0009377051321966765,
        "Eccentricity": 0.0,
        "Inclination(deg)": 60.0,
        "Latitude(deg)": -45.1677637073003,
        "Longitude(deg)": 49.93219677807793,
        "Mean Anomaly(deg)": -125.32814469084353,
        "RAAN(deg)": 294.99621955774234,
        "Satellite Name": "Test1 1312",
        "Satellite Number": 1312,
        "Semi-Major Axis(m)": 6980739.136638005,
        "Time(s)": 90
    },
    {
        "Altitude(m)": 619575.7776888007,
        "Argument of Periapsis(deg)": 0.0010418945913296407,
        "Eccentricity": 0.0,
        "Inclination(deg)": 60.0,
        "Latitude(deg)": -45.60373769698024,
        "Longitude(deg)": 50.514146637657916,
        "Mean Anomaly(deg)": -124.70803854538167,
        "RAAN(deg)": 294.99579950860254,
        "Satellite Name": "Test1 1312",
        "Satellite Number": 1312,
        "Semi-Major Axis(m)": 6980739.136638005,
        "Time(s)": 100
    },
    {
        "Altitude(m)": 619752.8267646665,
        "Argument of Periapsis(deg)": 0.0011460840504626045,
        "Eccentricity": 0.0,
        "Inclination(deg)": 60.0,
        "Latitude(deg)": -46.03621345163778,
        "Longitude(deg)": 51.105765687846706,
        "Mean Anomaly(deg)": -124.08793239991978,
        "RAAN(deg)": 294.99537945946287,
        "Satellite Name": "Test1 1312",
        "Satellite Number": 1312,
        "Semi-Major Axis(m)": 6980739.136638005,
        "Time(s)": 110
    },
    {
        "Altitude(m)": 619928.0410784077,
        "Argument of Periapsis(deg)": 0.0012502735095955685,
        "Eccentricity": 0.0,
        "Inclination(deg)": 60.0,
        "Latitude(deg)": -46.46508516729737,
        "Longitude(deg)": 51.70727309066644,
        "Mean Anomaly(deg)": -123.46782625445802,
        "RAAN(deg)": 294.9949594103231,
        "Satellite Name": "Test1 1312",
        "Satellite Number": 1312,
        "Semi-Major Axis(m)": 6980739.136638005,
        "Time(s)": 120
    },
    {
        "Altitude(m)": 620101.35277222,
        "Argument of Periapsis(deg)": 0.0013544629687285324,
        "Eccentricity": 0.0,
        "Inclination(deg)": 60.0,
        "Latitude(deg)": -46.89024381300227,
        "Longitude(deg)": 52.318890114886116,
        "Mean Anomaly(deg)": -122.84772010899617,
        "RAAN(deg)": 294.99453936118334,
        "Satellite Name": "Test1 1312",
        "Satellite Number": 1312,
        "Semi-Major Axis(m)": 6980739.136638005,
        "Time(s)": 130
    },
    {
        "Altitude(m)": 620272.6946713239,
        "Argument of Periapsis(deg)": 0.0014586524278614966,
        "Eccentricity": 0.0,
        "Inclination(deg)": 60.0,
        "Latitude(deg)": -47.31157705851323,
        "Longitude(deg)": 52.94083878321997,
        "Mean Anomaly(deg)": -122.22761396353442,
        "RAAN(deg)": 294.9941193120436,
        "Satellite Name": "Test1 1312",
        "Satellite Number": 1312,
        "Semi-Major Axis(m)": 6980739.136638005,
        "Time(s)": 140
    },
    {
        "Altitude(m)": 620442.0003130033,
        "Argument of Periapsis(deg)": 0.0015628418869944607,
        "Eccentricity": 0.0,
        "Inclination(deg)": 60.0,
        "Latitude(deg)": -47.72896920493384,
        "Longitude(deg)": 53.573341991689425,
        "Mean Anomaly(deg)": -121.60750781807252,
        "RAAN(deg)": 294.9936992629039,
        "Satellite Name": "Test1 1312",
        "Satellite Number": 1312,
        "Semi-Major Axis(m)": 6980739.136638005,
        "Time(s)": 150
    },
    {
        "Altitude(m)": 620609.2039753102,
        "Argument of Periapsis(deg)": 0.0016670313461274247,
        "Eccentricity": 0.0,
        "Inclination(deg)": 60.0,
        "Latitude(deg)": -48.14230111891365,
        "Longitude(deg)": 54.216623585448254,
        "Mean Anomaly(deg)": -120.98740167261076,
        "RAAN(deg)": 294.99327921376414,
        "Satellite Name": "Test1 1312",
        "Satellite Number": 1312,
        "Semi-Major Axis(m)": 6980739.136638005,
        "Time(s)": 160
    },
    {
        "Altitude(m)": 620774.2407054042,
        "Argument of Periapsis(deg)": 0.0017712208052603888,
        "Eccentricity": 0.0,
        "Inclination(deg)": 60.0,
        "Latitude(deg)": -48.55145017115204,
        "Longitude(deg)": 54.87090687533434,
        "Mean Anomaly(deg)": -120.36729552714891,
        "RAAN(deg)": 294.9928591646244,
        "Satellite Name": "Test1 1312",
        "Satellite Number": 1312,
        "Semi-Major Axis(m)": 6980739.136638005,
        "Time(s)": 170
    },
    {
        "Altitude(m)": 620937.0463475882,
        "Argument of Periapsis(deg)": 0.001875410264393353,
        "Eccentricity": 0.0,
        "Inclination(deg)": 60.0,
        "Latitude(deg)": -48.956290179978595,
        "Longitude(deg)": 55.53641461797654,
        "Mean Anomaly(deg)": -119.74718938168705,
        "RAAN(deg)": 294.9924391154846,
        "Satellite Name": "Test1 1312",
        "Satellite Number": 1312,
        "Semi-Major Axis(m)": 6980739.136638005,
        "Time(s)": 180
    },
    {
        "Altitude(m)": 621097.5575709143,
        "Argument of Periapsis(deg)": 0.0019795997235263173,
        "Eccentricity": 0.0,
        "Inclination(deg)": 60.0,
        "Latitude(deg)": -49.35669136086961,
        "Longitude(deg)": 56.21336894368896,
        "Mean Anomaly(deg)": -119.12708323622526,
        "RAAN(deg)": 294.99201906634494,
        "Satellite Name": "Test1 1312",
        "Satellite Number": 1312,
        "Semi-Major Axis(m)": 6980739.136638005,
        "Time(s)": 190
    }
]